DUBAISAT-1              
1 35682U 09041B   26161.30585007  .00000676  00000+0  10773-3 0  9991
2 35682  98.0043 294.6395 0011755  93.2444 267.0110 14.75112768904083
OCEANSAT-2              
1 35931U 09051A   26161.55137005  .00000040  00000+0  53148-4 0  9996
2 35931  98.2324 149.0647 0014747 256.3093 103.6432 13.99664544878400
WORLDVIEW-2 (WV-2)      
1 35946U 09055A   26161.48353252  .00000086  00000+0  42975-4 0  9998
2 35946  98.4736 235.0253 0003348 232.0308 128.0577 14.37897424874684
SMOS                    
1 36036U 09059A   26161.51794285  .00000224  00000+0  85426-4 0  9994
2 36036  98.4426 348.9507 0001326  89.2827 270.8513 14.39768994872493
YAOGAN-7                
1 36110U 09069A   26161.25112784  .00000423  00000+0  65583-4 0  9990
2 36110  98.0082  47.1608 0025903  63.1573 297.2281 14.78002825888608
TANDEM-X                
1 36605U 10030A   26160.28753286  .00000776  00000+0  40127-4 0  9997
2 36605  97.4454 168.1075 0001902  90.0350 270.1102 15.19149708885449
CARTOSAT-2B             
1 36795U 10035A   26161.50501198  .00000872  00000+0  12608-3 0  9990
2 36795  97.9958 212.0975 0010669 206.1868 153.8804 14.78653953858863
YAOGAN-10               
1 36834U 10038A   26161.55777817  .00001354  00000+0  16381-3 0  9993
2 36834  97.8982 185.0150 0001630  88.7905  28.7985 14.85327969856222
COSMO-SKYMED 4          
1 37216U 10060A   26161.49015203  .00000359  00000+0  51604-4 0  9992
2 37216  97.8885 345.1868 0001372  90.4083 269.7288 14.82147837843572
RESOURCESAT-2           
1 37387U 11015A   26161.47303956  .00000043  00000+0  39874-4 0  9990
2 37387  98.7644 228.9610 0010123 277.1719  82.8307 14.21604955785226
HAIYANG-2A              
1 37781U 11043A   26161.55959332 -.00000003  00000+0  43261-4 0  9995
2 37781  99.3401 164.3829 0006118 103.6775 256.5055 13.74495294745745
RASAT                   
1 37791U 11044D   26161.51101171  .00000265  00000+0  54457-4 0  9991
2 37791  98.0567 253.0098 0019711 210.4912 277.3877 14.68159690792209
SRMSAT                  
1 37841U 11058D   26161.52450462  .00000356  00000+0  49378-4 0  9990
2 37841  19.9713  99.7947 0011923 130.6142  29.5560 14.11574150756872
PLEIADES 1A             
1 38012U 11076F   26161.48367459  .00000263  00000+0  66435-4 0  9999
2 38012  98.1973 236.6764 0001546  97.6643  28.7996 14.58567108771010
ZIYUAN 1-02C (ZY 1-02C) 
1 38038U 11079A   26161.54461569  .00000435  00000+0  15743-3 0  9990
2 38038  98.4071 228.9919 0005933 339.0444 127.9333 14.38209873758250
ARIRANG-3 (KOMPSAT-3)   
1 38338U 12025B   26161.53179108  .00000356  00000+0  79989-4 0  9994
2 38338  98.1175 119.1067 0006410 126.3171 233.8623 14.62200289750378
EXACTVIEW-1 (ADS-1B)    
1 38709U 12039C   26161.28944741  .00000086  00000+0  56715-4 0  9998
2 38709  98.9769 278.5241 0010794 186.0147 174.0904 14.24982560721729
SPOT 6                  
1 38755U 12047A   26161.47489733  .00000188  00000+0  50236-4 0  9999
2 38755  98.2119 228.8623 0001439  92.7719 267.3645 14.58559004732076
PLEIADES 1B             
1 39019U 12068A   26161.49380243  .00000325  00000+0  79753-4 0  9992
2 39019  98.1943 236.6377 0001597  94.4224 265.7158 14.58556889719874
GOKTURK 2               
1 39030U 12073A   26161.57073192  .00000206  00000+0  37235-4 0  9999
2 39030  97.6829 359.3341 0001828  59.1970 300.9420 14.75535173723535
LANDSAT 8               
1 39084U 13008A   26161.50105083  .00000258  00000+0  67358-4 0  9991
2 39084  98.2302 231.7156 0001462  95.9265 264.2100 14.57114196696920
SARAL                   
1 39086U 13009A   26161.47682470  .00000080  00000+0  45293-4 0  9997
2 39086  98.5557 348.1292 0001076 344.1374  15.9776 14.32854256694640
GAOFEN-1                
1 39150U 13018A   26161.48957784 -.00000011  00000+0  58120-5 0  9992
2 39150  97.9095 233.6933 0015841 290.2460  69.7047 14.76528131707252
VNREDSAT 1              
1 39160U 13021B   26161.46321483  .00000580  00000+0  11719-3 0  9997
2 39160  97.9083 215.1376 0001674  89.5262 270.6133 14.64850511699306
ARIRANG-5 (KOMPSAT-5)   
1 39227U 13042A   26161.51513032  .00001268  00000+0  94980-4 0  9999
2 39227  97.6209 348.3094 0004827 141.1022 219.0552 15.04473419702855
SKYSAT-A                
1 39418U 13066C   26161.37902562  .00002320  00000+0  13468-3 0  9992
2 39418  97.3821 210.9929 0020712 342.2304  17.8200 15.12938230687451
DUBAISAT-2              
1 39419U 13066D   26161.51105314  .00005938  00000+0  36717-3 0  9999
2 39419  97.4565 151.8304 0012766  60.6544 299.5959 15.10137272685380
GPM-CORE                
1 39574U 14009C   26161.47536975  .00007920  00000+0  16915-3 0  9996
2 39574  64.9727 330.6040 0012106 270.7736  89.2017 15.45478089696776
SENTINEL-1A             
1 39634U 14016A   26161.51035463  .00000288  00000+0  70740-4 0  9999
2 39634  98.1783 169.1406 0001436  80.9924 279.1438 14.59199013649045
KAZEOSAT 1              
1 39731U 14024A   26161.49953334  .00000329  00000+0  11325-3 0  9998
2 39731  98.3204 234.1131 0001466  76.4111 283.7242 14.42078161637595
ALOS-2                  
1 39766U 14029A   26161.51115214  .00001198  00000+0  16729-3 0  9999
2 39766  97.9219 258.7705 0001595  97.7602 262.3790 14.79468594650596
