OBJECT_NAME,OBJECT_ID,EPOCH,MEAN_MOTION,ECCENTRICITY,INCLINATION,RA_OF_ASC_NODE,ARG_OF_PERICENTER,MEAN_ANOMALY,EPHEMERIS_TYPE,CLASSIFICATION_TYPE,NORAD_CAT_ID,ELEMENT_SET_NO,REV_AT_EPOCH,BSTAR,MEAN_MOTION_DOT,MEAN_MOTION_DDOT
DUBAISAT-1,2009-041B,2026-06-10T07:20:25.446048,14.75112768,.0011755,98.0043,294.6395,93.2444,267.0110,0,U,35682,999,90408,.10773E-3,.676E-5,0
OCEANSAT-2,2009-051A,2026-06-10T13:13:58.372320,13.99664544,.0014747,98.2324,149.0647,256.3093,103.6432,0,U,35931,999,87840,.53148E-4,.4E-6,0
WORLDVIEW-2 (WV-2),2009-055A,2026-06-10T11:36:17.209728,14.37897424,.0003348,98.4736,235.0253,232.0308,128.0577,0,U,35946,999,87468,.42975E-4,.86E-6,0
SMOS,2009-059A,2026-06-10T12:25:50.262240,14.39768994,.0001326,98.4426,348.9507,89.2827,270.8513,0,U,36036,999,87249,.85426E-4,.224E-5,0
YAOGAN-7,2009-069A,2026-06-10T06:01:37.445376,14.78002825,.0025903,98.0082,47.1608,63.1573,297.2281,0,U,36110,999,88860,.65583E-4,.423E-5,0
TANDEM-X,2010-030A,2026-06-09T06:54:02.839104,15.19149708,.00019024,97.4454,168.1075,90.0350,270.1102,0,U,36605,999,88544,.40127109E-4,.776E-5,0
CARTOSAT-2B,2010-035A,2026-06-10T12:07:13.035072,14.78653953,.0010669,97.9958,212.0975,206.1868,153.8804,0,U,36795,999,85886,.12608E-3,.872E-5,0
YAOGAN-10,2010-038A,2026-06-10T13:23:12.033888,14.85327969,.000163,97.8982,185.0150,88.7905,28.7985,0,U,36834,999,85622,.16381E-3,.1354E-4,0
COSMO-SKYMED 4,2010-060A,2026-06-10T11:45:49.135392,14.82147837,.0001372,97.8885,345.1868,90.4083,269.7288,0,U,37216,999,84357,.51604E-4,.359E-5,0
RESOURCESAT-2,2011-015A,2026-06-10T11:21:10.617984,14.21604955,.0010123,98.7644,228.9610,277.1719,82.8307,0,U,37387,999,78522,.39874E-4,.43E-6,0
HAIYANG-2A,2011-043A,2026-06-10T13:25:48.862848,13.74495294,.0006118,99.3401,164.3829,103.6775,256.5055,0,U,37781,999,74574,.43261E-4,-.3E-7,0
RASAT,2011-044D,2026-06-10T12:15:51.411744,14.68159690,.0019711,98.0567,253.0098,210.4912,277.3877,0,U,37791,999,79220,.54457E-4,.265E-5,0
SRMSAT,2011-058D,2026-06-10T12:35:17.199168,14.11574150,.0011923,19.9713,99.7947,130.6142,29.5560,0,U,37841,999,75687,.49378E-4,.356E-5,0
PLEIADES 1A,2011-076F,2026-06-10T11:36:29.484576,14.58567108,.0001546,98.1973,236.6764,97.6643,28.7996,0,U,38012,999,77101,.66435E-4,.263E-5,0
ZIYUAN 1-02C (ZY 1-02C),2011-079A,2026-06-10T13:04:14.795616,14.38209873,.0005933,98.4071,228.9919,339.0444,127.9333,0,U,38038,999,75825,.15743E-3,.435E-5,0
ARIRANG-3 (KOMPSAT-3),2012-025B,2026-06-10T12:45:46.749312,14.62200289,.000641,98.1175,119.1067,126.3171,233.8623,0,U,38338,999,75037,.79989E-4,.356E-5,0
EXACTVIEW-1 (ADS-1B),2012-039C,2026-06-10T06:56:48.256224,14.24982560,.0010794,98.9769,278.5241,186.0147,174.0904,0,U,38709,999,72172,.56715E-4,.86E-6,0
SPOT 6,2012-047A,2026-06-10T11:23:51.129312,14.58559004,.0001439,98.2119,228.8623,92.7719,267.3645,0,U,38755,999,73207,.50236E-4,.188E-5,0
PLEIADES 1B,2012-068A,2026-06-10T11:51:04.529952,14.58556889,.0001597,98.1943,236.6377,94.4224,265.7158,0,U,39019,999,71987,.79753E-4,.325E-5,0
GOKTURK 2,2012-073A,2026-06-10T13:41:51.237888,14.75535173,.0001828,97.6829,359.3341,59.1970,300.9420,0,U,39030,999,72353,.37235E-4,.206E-5,0
LANDSAT 8,2013-008A,2026-06-10T12:01:30.791712,14.57114196,.0001462,98.2302,231.7156,95.9265,264.2100,0,U,39084,999,69692,.67358E-4,.258E-5,0
SARAL,2013-009A,2026-06-10T11:26:37.654080,14.32854256,.0001076,98.5557,348.1292,344.1374,15.9776,0,U,39086,999,69464,.45293E-4,.8E-6,0
GAOFEN-1,2013-018A,2026-06-10T11:44:59.525376,14.76528131,.0015841,97.9095,233.6933,290.2460,69.7047,0,U,39150,999,70725,.5812E-5,-.11E-6,0
VNREDSAT 1,2013-021B,2026-06-10T11:07:01.761312,14.64850511,.0001674,97.9083,215.1376,89.5262,270.6133,0,U,39160,999,69930,.11719E-3,.58E-5,0
ARIRANG-5 (KOMPSAT-5),2013-042A,2026-06-10T12:21:47.259648,15.04473419,.0004827,97.6209,348.3094,141.1022,219.0552,0,U,39227,999,70285,.9498E-4,.1268E-4,0
SKYSAT-A,2013-066C,2026-06-10T09:05:47.813568,15.12938230,.0020712,97.3821,210.9929,342.2304,17.8200,0,U,39418,999,68745,.13468E-3,.232E-4,0
DUBAISAT-2,2013-066D,2026-06-10T12:15:54.991296,15.10137272,.0012766,97.4565,151.8304,60.6544,299.5959,0,U,39419,999,68538,.36717E-3,.5938E-4,0
GPM-CORE,2014-009C,2026-06-10T11:24:31.946400,15.45478089,.0012106,64.9727,330.6040,270.7736,89.2017,0,U,39574,999,69677,.16915E-3,.792E-4,0
SENTINEL-1A,2014-016A,2026-06-10T12:14:54.640032,14.59199013,.0001436,98.1783,169.1406,80.9924,279.1438,0,U,39634,999,64904,.7074E-4,.288E-5,0
KAZEOSAT 1,2014-024A,2026-06-10T11:59:19.680576,14.42078161,.0001466,98.3204,234.1131,76.4111,283.7242,0,U,39731,999,63759,.11325E-3,.329E-5,0
ALOS-2,2014-029A,2026-06-10T12:16:03.544896,14.79468594,.0001595,97.9219,258.7705,97.7602,262.3790,0,U,39766,999,65059,.16729E-3,.1198E-4,0
